{
  "type": "FeatureCollection",
  "features": [
    {
      "type": "Feature",
      "properties": {
        "norad_id": 31178,
        "name": "FENGYUN 1C DEB",
        "group": "fengyun-1c-debris",
        "lat": 35.2839161774253,
        "lon": -23.371626414836296,
        "alt_km": 777.5754681651151,
        "timestamp": "2025-12-07T14:37:05.485414+00:00",
        "meta_object_name": "FENGYUN 1C DEB",
        "meta_object_id": "1999-025BJG",
        "meta_epoch": "2025-12-06T18:11:26.359008",
        "meta_mean_motion": 14.2211652,
        "meta_eccentricity": 0.01262985,
        "meta_inclination": 99.5126,
        "meta_ra_of_asc_node": 342.525,
        "meta_arg_of_pericenter": 332.4835,
        "meta_mean_anomaly": 26.9691,
        "meta_ephemeris_type": 0,
        "meta_classification_type": "U",
        "meta_norad_cat_id": 31178,
        "meta_element_set_no": 999,
        "meta_rev_at_epoch": 95730,
        "meta_bstar": 0.0038182639,
        "meta_mean_motion_dot": 9.132e-05,
        "meta_mean_motion_ddot": 0,
        "tle_line1": "1 31178U 99025BJG 25340.75794397  .00009132  00000+0  38183-2 0  9999",
        "tle_line2": "2 31178  99.5126 342.5250 0126298 332.4835  26.9691 14.22116520957302"
      },
      "geometry": {
        "type": "Point",
        "coordinates": [
          -23.371626414836296,
          35.2839161774253
        ]
      }
    },
    {
      "type": "Feature",
      "properties": {
        "norad_id": 31179,
        "name": "FENGYUN 1C DEB",
        "group": "fengyun-1c-debris",
        "lat": 79.66419924024295,
        "lon": -58.89681783756491,
        "alt_km": 858.0122011657586,
        "timestamp": "2025-12-07T14:37:05.485424+00:00",
        "meta_object_name": "FENGYUN 1C DEB",
        "meta_object_id": "1999-025BJH",
        "meta_epoch": "2025-12-05T07:01:13.321920",
        "meta_mean_motion": 13.91889906,
        "meta_eccentricity": 0.0215815,
        "meta_inclination": 99.0199,
        "meta_ra_of_asc_node": 359.4166,
        "meta_arg_of_pericenter": 21.1371,
        "meta_mean_anomaly": 339.8541,
        "meta_ephemeris_type": 0,
        "meta_classification_type": "U",
        "meta_norad_cat_id": 31179,
        "meta_element_set_no": 999,
        "meta_rev_at_epoch": 61837,
        "meta_bstar": 0.0018729323,
        "meta_mean_motion_dot": 2.844e-05,
        "meta_mean_motion_ddot": 0,
        "tle_line1": "1 31179U 99025BJH 25339.29251530  .00002844  00000+0  18729-2 0  9991",
        "tle_line2": "2 31179  99.0199 359.4166 0215815  21.1371 339.8541 13.91889906618373"
      },
      "geometry": {
        "type": "Point",
        "coordinates": [
          -58.89681783756491,
          79.66419924024295
        ]
      }
    },
    {
      "type": "Feature",
      "properties": {
        "norad_id": 31180,
        "name": "FENGYUN 1C DEB",
        "group": "fengyun-1c-debris",
        "lat": -50.98660298170773,
        "lon": -78.22304390594866,
        "alt_km": 1344.5113385374425,
        "timestamp": "2025-12-07T14:37:05.485434+00:00",
        "meta_object_name": "FENGYUN 1C DEB",
        "meta_object_id": "1999-025BJJ",
        "meta_epoch": "2025-12-06T07:52:38.506080",
        "meta_mean_motion": 13.70333762,
        "meta_eccentricity": 0.04984764,
        "meta_inclination": 99.2184,
        "meta_ra_of_asc_node": 112.1065,
        "meta_arg_of_pericenter": 76.8265,
        "meta_mean_anomaly": 317.4167,
        "meta_ephemeris_type": 0,
        "meta_classification_type": "U",
        "meta_norad_cat_id": 31180,
        "meta_element_set_no": 999,
        "meta_rev_at_epoch": 63979,
        "meta_bstar": 0.00040899855,
        "meta_mean_motion_dot": 8.33e-06,
        "meta_mean_motion_ddot": 0,
        "tle_line1": "1 31180U 99025BJJ 25340.32822345  .00000833  00000+0  40900-3 0  9990",
        "tle_line2": "2 31180  99.2184 112.1065 0498476  76.8265 317.4167 13.70333762639794"
      },
      "geometry": {
        "type": "Point",
        "coordinates": [
          -78.22304390594866,
          -50.98660298170773
        ]
      }
    },
    {
      "type": "Feature",
      "properties": {
        "norad_id": 31181,
        "name": "FENGYUN 1C DEB",
        "group": "fengyun-1c-debris",
        "lat": 69.40148042956852,
        "lon": -9.994341890792985,
        "alt_km": 812.978911878592,
        "timestamp": "2025-12-07T14:37:05.485444+00:00",
        "meta_object_name": "FENGYUN 1C DEB",
        "meta_object_id": "1999-025BJK",
        "meta_epoch": "2025-12-06T13:29:50.146080",
        "meta_mean_motion": 14.11856129,
        "meta_eccentricity": 0.00481542,
        "meta_inclination": 98.7747,
        "meta_ra_of_asc_node": 13.2463,
        "meta_arg_of_pericenter": 91.6254,
        "meta_mean_anomaly": 62.7516,
        "meta_ephemeris_type": 0,
        "meta_classification_type": "U",
        "meta_norad_cat_id": 31181,
        "meta_element_set_no": 999,
        "meta_rev_at_epoch": 95680,
        "meta_bstar": 0.0016824405,
        "meta_mean_motion_dot": 3.063e-05,
        "meta_mean_motion_ddot": 0,
        "tle_line1": "1 31181U 99025BJK 25340.56238595  .00003063  00000+0  16824-2 0  9990",
        "tle_line2": "2 31181  98.7747  13.2463 0048154  91.6254  62.7516 14.11856129956809"
      },
      "geometry": {
        "type": "Point",
        "coordinates": [
          -9.994341890792985,
          69.40148042956852
        ]
      }
    },
    {
      "type": "Feature",
      "properties": {
        "norad_id": 31182,
        "name": "FENGYUN 1C DEB",
        "group": "fengyun-1c-debris",
        "lat": 5.073623457405789,
        "lon": 151.40339976266202,
        "alt_km": 831.1372529989876,
        "timestamp": "2025-12-07T14:37:05.485454+00:00",
        "meta_object_name": "FENGYUN 1C DEB",
        "meta_object_id": "1999-025BJL",
        "meta_epoch": "2025-11-30T19:23:45.055104",
        "meta_mean_motion": 14.14526628,
        "meta_eccentricity": 0.00226562,
        "meta_inclination": 98.6809,
        "meta_ra_of_asc_node": 324.0155,
        "meta_arg_of_pericenter": 170.3323,
        "meta_mean_anomaly": 311.2725,
        "meta_ephemeris_type": 0,
        "meta_classification_type": "U",
        "meta_norad_cat_id": 31182,
        "meta_element_set_no": 999,
        "meta_rev_at_epoch": 95912,
        "meta_bstar": 0.00037537528,
        "meta_mean_motion_dot": 6.79e-06,
        "meta_mean_motion_ddot": 0,
        "tle_line1": "1 31182U 99025BJL 25334.80816036  .00000679  00000+0  37538-3 0  9999",
        "tle_line2": "2 31182  98.6809 324.0155 0022656 170.3323 311.2725 14.14526628959123"
      },
      "geometry": {
        "type": "Point",
        "coordinates": [
          151.40339976266202,
          5.073623457405789
        ]
      }
    },
    {
      "type": "Feature",
      "properties": {
        "norad_id": 31183,
        "name": "FENGYUN 1C DEB",
        "group": "fengyun-1c-debris",
        "lat": 34.2148939990156,
        "lon": 151.18856554447868,
        "alt_km": 691.2416540483682,
        "timestamp": "2025-12-07T14:37:05.485464+00:00",
        "meta_object_name": "FENGYUN 1C DEB",
        "meta_object_id": "1999-025BJM",
        "meta_epoch": "2025-12-06T21:40:34.947264",
        "meta_mean_motion": 14.50354865,
        "meta_eccentricity": 0.0047213,
        "meta_inclination": 99.0356,
        "meta_ra_of_asc_node": 324.22,
        "meta_arg_of_pericenter": 124.6626,
        "meta_mean_anomaly": 296.6858,
        "meta_ephemeris_type": 0,
        "meta_classification_type": "U",
        "meta_norad_cat_id": 31183,
        "meta_element_set_no": 999,
        "meta_rev_at_epoch": 97398,
        "meta_bstar": 0.0019098554,
        "meta_mean_motion_dot": 7.514e-05,
        "meta_mean_motion_ddot": 0,
        "tle_line1": "1 31183U 99025BJM 25340.90318226  .00007514  00000+0  19099-2 0  9992",
        "tle_line2": "2 31183  99.0356 324.2200 0047213 124.6626 296.6858 14.50354865973988"
      },
      "geometry": {
        "type": "Point",
        "coordinates": [
          151.18856554447868,
          34.2148939990156
        ]
      }
    },
    {
      "type": "Feature",
      "properties": {
        "norad_id": 31185,
        "name": "FENGYUN 1C DEB",
        "group": "fengyun-1c-debris",
        "lat": -66.75143843239347,
        "lon": 137.01678181602605,
        "alt_km": 908.9113496483005,
        "timestamp": "2025-12-07T14:37:05.485474+00:00",
        "meta_object_name": "FENGYUN 1C DEB",
        "meta_object_id": "1999-025BJP",
        "meta_epoch": "2025-12-03T06:44:56.905152",
        "meta_mean_motion": 14.03019915,
        "meta_eccentricity": 0.0041359,
        "meta_inclination": 98.8321,
        "meta_ra_of_asc_node": 334.0356,
        "meta_arg_of_pericenter": 132.5488,
        "meta_mean_anomaly": 227.9182,
        "meta_ephemeris_type": 0,
        "meta_classification_type": "U",
        "meta_norad_cat_id": 31185,
        "meta_element_set_no": 999,
        "meta_rev_at_epoch": 62204,
        "meta_bstar": 0.0004459,
        "meta_mean_motion_dot": 6.55e-06,
        "meta_mean_motion_ddot": 0,
        "tle_line1": "1 31185U 99025BJP 25337.28121418  .00000655  00000+0  44590-3 0  9990",
        "tle_line2": "2 31185  98.8321 334.0356 0041359 132.5488 227.9182 14.03019915622046"
      },
      "geometry": {
        "type": "Point",
        "coordinates": [
          137.01678181602605,
          -66.75143843239347
        ]
      }
    }
  ]
}